EUTELSAT 7A             
1 28187U 04008A   25299.16419661  .00000116  00000+0  00000+0 0  9995
2 28187   5.2327  74.7896 0000749 124.4589 115.4625  1.00271317 79003
EUTELSAT 174A           
1 28924U 05052A   25299.09766919  .00000023  00000+0  00000+0 0  9994
2 28924   3.6225  79.4140 0006135 134.1456  30.3934  1.00269958 49981
EUTELSAT HOTBIRD 13B    
1 29270U 06032A   25299.12392390  .00000168  00000+0  00000+0 0  9990
2 29270   1.0522  84.7748 0003933 122.9015 264.8180  1.00274558 44962
EUTELSAT HOTBIRD 13C    
1 33459U 08065A   25299.18239166 -.00000087  00000+0  00000+0 0  9990
2 33459   2.3445  81.9453 0005948 151.6698 214.3947  1.00272240 45003
EUTELSAT 36B            
1 36101U 09065A   25299.12739059  .00000124  00000+0  00000+0 0  9999
2 36101   0.0503   6.3641 0005930 209.5728 275.2055  1.00270451 58369
EUTELSAT KA-SAT 9A      
1 37258U 10069A   25299.19419958  .00000074  00000+0  00000+0 0  9993
2 37258   0.0586 319.8894 0002296 217.5810 296.3021  1.00271387 41660
EUTELSAT 7 WEST A       
1 37816U 11051A   25299.18239166 -.00000048  00000+0  00000+0 0  9997
2 37816   0.0961  48.3211 0006288 159.2000 245.6805  1.00272586 51549
EUTELSAT 16A            
1 37836U 11057A   25299.12054389  .00000116  00000+0  00000+0 0  9996
2 37836   0.0653   4.8093 0005591 213.7426 235.6135  1.00270209  4989
